ALOS (DAICHI)           
1 28931U 06002A   26108.12199848  .00000735  00000+0  13102-3 0  9994
2 28931  98.1280  63.8998 0001666 111.1528 248.9856 14.69923664 79271
H-2A R/B                
1 28932U 06002B   26107.99132491  .00006255  00000+0  30710-3 0  9997
2 28932  98.2486 258.4397 0052638 107.8426 252.8557 15.17267893100399
RESURS-DK 1             
1 29228U 06021A   26108.14051509  .00001290  00000+0  79087-4 0  9990
2 29228  69.9296 134.9591 0002620 357.5086   2.6067 15.12956140 93492
CZ-4B R/B               
1 29507U 06046C   26108.11742845  .00003417  00000+0  17246-3 0  9995
2 29507  97.5515 152.9138 0034350 129.3695 231.0590 15.17290940 66028
CZ-2C R/B               
1 31114U 07010B   26108.24847638  .00000067  00000+0  49725-4 0  9990
2 31114  98.4025 219.5529 0059123 178.0716 182.0701 14.20260328985338
COSMO-SKYMED 1          
1 31598U 07023A   26108.30988312  .00001284  00000+0  11740-3 0  9999
2 31598  97.8875 299.6684 0001211  87.3791 272.7569 14.96807320 20837
COSMOS 2428             
1 31792U 07029A   26108.32148674 -.00000157  00000+0 -58732-4 0  9995
2 31792  70.9396 120.1597 0009408 234.4020 125.6225 14.12947474969694
SL-16 R/B               
1 31793U 07029B   26108.21671325 -.00000011  00000+0  19212-4 0  9996
2 31793  70.9731  89.2937 0002672 270.4250 100.4421 14.14841433970963
KORONAS-FOTON           
1 33504U 09003A   26108.30103134  .00009654  00000+0  20784-3 0  9996
2 33504  82.4306 234.6590 0010462  18.6461 341.5168 15.44395805951858
CZ-2C R/B               
1 37731U 11030B   26108.11901537  .00000594  00000+0  81257-4 0  9994
2 37731  97.8608  64.6146 0051386 220.8505 149.0726 14.81342658795937
H-2A R/B                
1 38341U 12025E   26107.87494671  .00001732  00000+0  16002-3 0  9995
2 38341  98.4794  78.0834 0044060 182.5215 177.5789 14.95413335754075
SHIJIAN-16 (SJ-16)      
1 39358U 13057A   26108.24711179  .00000638  00000+0  64938-4 0  9993
2 39358  74.9696 110.1942 0015828  10.7274 349.4248 14.92461979677404
SL-4 R/B                
1 39679U 14021B   26108.15102830  .00009171  00000+0  20014-3 0  9996
2 39679  51.6049 144.5636 0093082 247.2774 111.8351 15.40511518662358
ALOS-2                  
1 39766U 14029A   26108.28408150 -.00000380  00000+0 -44020-4 0  9998
2 39766  97.9203 206.3057 0001765  91.5378 268.6035 14.79452921642723
YAOGAN-29               
1 41038U 15069A   26108.33257932  .00000012  00000+0  81694-5 0  9993
2 41038  98.0082 136.8581 0001212 151.5226 208.6053 14.83035381561759
ASTRO-H (HITOMI)        
1 41337U 16012A   26108.29235299  .00001922  00000+0  10892-3 0  9992
2 41337  30.9983 100.9283 0009505   9.4327 350.6488 15.10238309558227
