[{"OBJECT_NAME":"ALOS (DAICHI)","OBJECT_ID":"2006-002A","EPOCH":"2026-04-18T02:55:40.668672","MEAN_MOTION":14.69923664,"ECCENTRICITY":0.0001666,"INCLINATION":98.128,"RA_OF_ASC_NODE":63.8998,"ARG_OF_PERICENTER":111.1528,"MEAN_ANOMALY":248.9856,"EPHEMERIS_TYPE":0,"CLASSIFICATION_TYPE":"U","NORAD_CAT_ID":28931,"ELEMENT_SET_NO":999,"REV_AT_EPOCH":7927,"BSTAR":0.00013101694,"MEAN_MOTION_DOT":7.35e-6,"MEAN_MOTION_DDOT":0},{"OBJECT_NAME":"H-2A R/B","OBJECT_ID":"2006-002B","EPOCH":"2026-04-17T23:47:30.472224","MEAN_MOTION":15.17267893,"ECCENTRICITY":0.00526389,"INCLINATION":98.2486,"RA_OF_ASC_NODE":258.4397,"ARG_OF_PERICENTER":107.8426,"MEAN_ANOMALY":252.8557,"EPHEMERIS_TYPE":0,"CLASSIFICATION_TYPE":"U","NORAD_CAT_ID":28932,"ELEMENT_SET_NO":999,"REV_AT_EPOCH":10039,"BSTAR":0.00030709774,"MEAN_MOTION_DOT":6.255e-5,"MEAN_MOTION_DDOT":0},{"OBJECT_NAME":"RESURS-DK 1","OBJECT_ID":"2006-021A","EPOCH":"2026-04-18T03:22:20.503776","MEAN_MOTION":15.1295614,"ECCENTRICITY":0.000262,"INCLINATION":69.9296,"RA_OF_ASC_NODE":134.9591,"ARG_OF_PERICENTER":357.5086,"MEAN_ANOMALY":2.6067,"EPHEMERIS_TYPE":0,"CLASSIFICATION_TYPE":"U","NORAD_CAT_ID":29228,"ELEMENT_SET_NO":999,"REV_AT_EPOCH":9349,"BSTAR":7.9086502e-5,"MEAN_MOTION_DOT":1.29e-5,"MEAN_MOTION_DDOT":0},{"OBJECT_NAME":"CZ-4B R/B","OBJECT_ID":"2006-046C","EPOCH":"2026-04-18T02:49:05.818080","MEAN_MOTION":15.1729094,"ECCENTRICITY":0.00343508,"INCLINATION":97.5515,"RA_OF_ASC_NODE":152.9138,"ARG_OF_PERICENTER":129.3695,"MEAN_ANOMALY":231.059,"EPHEMERIS_TYPE":0,"CLASSIFICATION_TYPE":"U","NORAD_CAT_ID":29507,"ELEMENT_SET_NO":999,"REV_AT_EPOCH":6602,"BSTAR":0.00017245801,"MEAN_MOTION_DOT":3.417e-5,"MEAN_MOTION_DDOT":0},{"OBJECT_NAME":"CZ-2C R/B","OBJECT_ID":"2007-010B","EPOCH":"2026-04-18T05:57:48.359232","MEAN_MOTION":14.20260328,"ECCENTRICITY":0.00591239,"INCLINATION":98.4025,"RA_OF_ASC_NODE":219.5529,"ARG_OF_PERICENTER":178.0716,"MEAN_ANOMALY":182.0701,"EPHEMERIS_TYPE":0,"CLASSIFICATION_TYPE":"U","NORAD_CAT_ID":31114,"ELEMENT_SET_NO":999,"REV_AT_EPOCH":98533,"BSTAR":4.9725391e-5,"MEAN_MOTION_DOT":6.7e-7,"MEAN_MOTION_DDOT":0},{"OBJECT_NAME":"COSMO-SKYMED 1","OBJECT_ID":"2007-023A","EPOCH":"2026-04-18T07:26:13.901568","MEAN_MOTION":14.9680732,"ECCENTRICITY":0.00012113,"INCLINATION":97.8875,"RA_OF_ASC_NODE":299.6684,"ARG_OF_PERICENTER":87.3791,"MEAN_ANOMALY":272.7569,"EPHEMERIS_TYPE":0,"CLASSIFICATION_TYPE":"U","NORAD_CAT_ID":31598,"ELEMENT_SET_NO":999,"REV_AT_EPOCH":2083,"BSTAR":0.00011739519,"MEAN_MOTION_DOT":1.284e-5,"MEAN_MOTION_DDOT":0},{"OBJECT_NAME":"COSMOS 2428","OBJECT_ID":"2007-029A","EPOCH":"2026-04-18T07:42:56.454336","MEAN_MOTION":14.12947474,"ECCENTRICITY":0.00094083,"INCLINATION":70.9396,"RA_OF_ASC_NODE":120.1597,"ARG_OF_PERICENTER":234.402,"MEAN_ANOMALY":125.6225,"EPHEMERIS_TYPE":0,"CLASSIFICATION_TYPE":"U","NORAD_CAT_ID":31792,"ELEMENT_SET_NO":999,"REV_AT_EPOCH":96969,"BSTAR":-5.8731644e-5,"MEAN_MOTION_DOT":-1.57e-6,"MEAN_MOTION_DDOT":0},{"OBJECT_NAME":"SL-16 R/B","OBJECT_ID":"2007-029B","EPOCH":"2026-04-18T05:12:04.024800","MEAN_MOTION":14.14841433,"ECCENTRICITY":0.00026726,"INCLINATION":70.9731,"RA_OF_ASC_NODE":89.2937,"ARG_OF_PERICENTER":270.425,"MEAN_ANOMALY":100.4421,"EPHEMERIS_TYPE":0,"CLASSIFICATION_TYPE":"U","NORAD_CAT_ID":31793,"ELEMENT_SET_NO":999,"REV_AT_EPOCH":97096,"BSTAR":1.9211584e-5,"MEAN_MOTION_DOT":-1.1e-7,"MEAN_MOTION_DDOT":0},{"OBJECT_NAME":"KORONAS-FOTON","OBJECT_ID":"2009-003A","EPOCH":"2026-04-18T07:13:29.107776","MEAN_MOTION":15.44395805,"ECCENTRICITY":0.00104626,"INCLINATION":82.4306,"RA_OF_ASC_NODE":234.659,"ARG_OF_PERICENTER":18.6461,"MEAN_ANOMALY":341.5168,"EPHEMERIS_TYPE":0,"CLASSIFICATION_TYPE":"U","NORAD_CAT_ID":33504,"ELEMENT_SET_NO":999,"REV_AT_EPOCH":95185,"BSTAR":0.00020783696,"MEAN_MOTION_DOT":9.654e-5,"MEAN_MOTION_DDOT":0},{"OBJECT_NAME":"CZ-2C R/B","OBJECT_ID":"2011-030B","EPOCH":"2026-04-18T02:51:22.927968","MEAN_MOTION":14.81342658,"ECCENTRICITY":0.00513866,"INCLINATION":97.8608,"RA_OF_ASC_NODE":64.6146,"ARG_OF_PERICENTER":220.8505,"MEAN_ANOMALY":149.0726,"EPHEMERIS_TYPE":0,"CLASSIFICATION_TYPE":"U","NORAD_CAT_ID":37731,"ELEMENT_SET_NO":999,"REV_AT_EPOCH":79593,"BSTAR":8.1256514e-5,"MEAN_MOTION_DOT":5.94e-6,"MEAN_MOTION_DDOT":0},{"OBJECT_NAME":"H-2A R/B","OBJECT_ID":"2012-025E","EPOCH":"2026-04-17T20:59:55.395744","MEAN_MOTION":14.95413335,"ECCENTRICITY":0.00440606,"INCLINATION":98.4794,"RA_OF_ASC_NODE":78.0834,"ARG_OF_PERICENTER":182.5215,"MEAN_ANOMALY":177.5789,"EPHEMERIS_TYPE":0,"CLASSIFICATION_TYPE":"U","NORAD_CAT_ID":38341,"ELEMENT_SET_NO":999,"REV_AT_EPOCH":75407,"BSTAR":0.00016001799,"MEAN_MOTION_DOT":1.732e-5,"MEAN_MOTION_DDOT":0},{"OBJECT_NAME":"SHIJIAN-16 (SJ-16)","OBJECT_ID":"2013-057A","EPOCH":"2026-04-18T05:55:50.458656","MEAN_MOTION":14.92461979,"ECCENTRICITY":0.00158289,"INCLINATION":74.9696,"RA_OF_ASC_NODE":110.1942,"ARG_OF_PERICENTER":10.7274,"MEAN_ANOMALY":349.4248,"EPHEMERIS_TYPE":0,"CLASSIFICATION_TYPE":"U","NORAD_CAT_ID":39358,"ELEMENT_SET_NO":999,"REV_AT_EPOCH":67740,"BSTAR":6.4938418e-5,"MEAN_MOTION_DOT":6.38e-6,"MEAN_MOTION_DDOT":0},{"OBJECT_NAME":"SL-4 R/B","OBJECT_ID":"2014-021B","EPOCH":"2026-04-18T03:37:28.845120","MEAN_MOTION":15.40511518,"ECCENTRICITY":0.00930822,"INCLINATION":51.6049,"RA_OF_ASC_NODE":144.5636,"ARG_OF_PERICENTER":247.2774,"MEAN_ANOMALY":111.8351,"EPHEMERIS_TYPE":0,"CLASSIFICATION_TYPE":"U","NORAD_CAT_ID":39679,"ELEMENT_SET_NO":999,"REV_AT_EPOCH":66235,"BSTAR":0.00020013904,"MEAN_MOTION_DOT":9.171e-5,"MEAN_MOTION_DDOT":0},{"OBJECT_NAME":"ALOS-2","OBJECT_ID":"2014-029A","EPOCH":"2026-04-18T06:49:04.641600","MEAN_MOTION":14.79452921,"ECCENTRICITY":0.00017653,"INCLINATION":97.9203,"RA_OF_ASC_NODE":206.3057,"ARG_OF_PERICENTER":91.5378,"MEAN_ANOMALY":268.6035,"EPHEMERIS_TYPE":0,"CLASSIFICATION_TYPE":"U","NORAD_CAT_ID":39766,"ELEMENT_SET_NO":999,"REV_AT_EPOCH":64272,"BSTAR":-4.401999e-5,"MEAN_MOTION_DOT":-3.8e-6,"MEAN_MOTION_DDOT":0},{"OBJECT_NAME":"YAOGAN-29","OBJECT_ID":"2015-069A","EPOCH":"2026-04-18T07:58:54.853248","MEAN_MOTION":14.83035381,"ECCENTRICITY":0.00012122,"INCLINATION":98.0082,"RA_OF_ASC_NODE":136.8581,"ARG_OF_PERICENTER":151.5226,"MEAN_ANOMALY":208.6053,"EPHEMERIS_TYPE":0,"CLASSIFICATION_TYPE":"U","NORAD_CAT_ID":41038,"ELEMENT_SET_NO":999,"REV_AT_EPOCH":56175,"BSTAR":8.169428e-6,"MEAN_MOTION_DOT":1.2e-7,"MEAN_MOTION_DDOT":0},{"OBJECT_NAME":"ASTRO-H (HITOMI)","OBJECT_ID":"2016-012A","EPOCH":"2026-04-18T07:00:59.298336","MEAN_MOTION":15.10238309,"ECCENTRICITY":0.00095054,"INCLINATION":30.9983,"RA_OF_ASC_NODE":100.9283,"ARG_OF_PERICENTER":9.4327,"MEAN_ANOMALY":350.6488,"EPHEMERIS_TYPE":0,"CLASSIFICATION_TYPE":"U","NORAD_CAT_ID":41337,"ELEMENT_SET_NO":999,"REV_AT_EPOCH":55822,"BSTAR":0.00010891822,"MEAN_MOTION_DOT":1.922e-5,"MEAN_MOTION_DDOT":0}]
